{
  "type": "FeatureCollection",
  "features": [
    {
      "type": "Feature",
      "properties": {
        "norad_id": 35043,
        "name": "COSMOS 2251 DEB",
        "group": "cosmos-2251-debris",
        "lat": -11.823150205534159,
        "lon": 25.514849697076745,
        "alt_km": 665.2834079907998,
        "timestamp": "2025-12-21T03:56:51.228513+00:00",
        "meta_object_name": "COSMOS 2251 DEB",
        "meta_object_id": "1993-036AHG",
        "meta_epoch": "2025-12-18T09:22:03.578880",
        "meta_mean_motion": 14.77234349,
        "meta_eccentricity": 0.00960967,
        "meta_inclination": 73.9519,
        "meta_ra_of_asc_node": 34.4369,
        "meta_arg_of_pericenter": 242.9214,
        "meta_mean_anomaly": 116.2132,
        "meta_ephemeris_type": 0,
        "meta_classification_type": "U",
        "meta_norad_cat_id": 35043,
        "meta_element_set_no": 999,
        "meta_rev_at_epoch": 67502,
        "meta_bstar": 0.0030540152,
        "meta_mean_motion_dot": 0.00023411,
        "meta_mean_motion_ddot": 0,
        "tle_line1": "1 35043U 93036AHG 25352.39031920  .00023411  00000+0  30540-2 0  9994",
        "tle_line2": "2 35043  73.9519  34.4369 0096096 242.9214 116.2132 14.77234349675024"
      },
      "geometry": {
        "type": "Point",
        "coordinates": [
          25.514849697076745,
          -11.823150205534159
        ]
      }
    },
    {
      "type": "Feature",
      "properties": {
        "norad_id": 35045,
        "name": "COSMOS 2251 DEB",
        "group": "cosmos-2251-debris",
        "lat": 8.716109911606152,
        "lon": 40.392623910588675,
        "alt_km": 892.49018552507,
        "timestamp": "2025-12-21T03:56:51.228522+00:00",
        "meta_object_name": "COSMOS 2251 DEB",
        "meta_object_id": "1993-036AHJ",
        "meta_epoch": "2025-12-20T12:28:28.167744",
        "meta_mean_motion": 14.00402013,
        "meta_eccentricity": 0.0183906,
        "meta_inclination": 73.7193,
        "meta_ra_of_asc_node": 38.9629,
        "meta_arg_of_pericenter": 279.9128,
        "meta_mean_anomaly": 78.1289,
        "meta_ephemeris_type": 0,
        "meta_classification_type": "U",
        "meta_norad_cat_id": 35045,
        "meta_element_set_no": 999,
        "meta_rev_at_epoch": 84752,
        "meta_bstar": 0.0005282,
        "meta_mean_motion_dot": 8.78e-06,
        "meta_mean_motion_ddot": 0,
        "tle_line1": "1 35045U 93036AHJ 25354.51977046  .00000878  00000+0  52820-3 0  9998",
        "tle_line2": "2 35045  73.7193  38.9629 0183906 279.9128  78.1289 14.00402013847527"
      },
      "geometry": {
        "type": "Point",
        "coordinates": [
          40.392623910588675,
          8.716109911606152
        ]
      }
    },
    {
      "type": "Feature",
      "properties": {
        "norad_id": 35060,
        "name": "COSMOS 2251 DEB",
        "group": "cosmos-2251-debris",
        "lat": 72.45872010384585,
        "lon": -66.37270049285053,
        "alt_km": 754.1697574158306,
        "timestamp": "2025-12-21T03:56:51.228531+00:00",
        "meta_object_name": "COSMOS 2251 DEB",
        "meta_object_id": "1993-036AHP",
        "meta_epoch": "2025-12-17T09:37:48.798336",
        "meta_mean_motion": 14.41611034,
        "meta_eccentricity": 0.00186104,
        "meta_inclination": 74.0362,
        "meta_ra_of_asc_node": 235.6937,
        "meta_arg_of_pericenter": 321.6138,
        "meta_mean_anomaly": 38.3692,
        "meta_ephemeris_type": 0,
        "meta_classification_type": "U",
        "meta_norad_cat_id": 35060,
        "meta_element_set_no": 999,
        "meta_rev_at_epoch": 87309,
        "meta_bstar": 0.00026105938,
        "meta_mean_motion_dot": 8.25e-06,
        "meta_mean_motion_ddot": 0,
        "tle_line1": "1 35060U 93036AHP 25351.40125924  .00000825  00000+0  26106-3 0  9990",
        "tle_line2": "2 35060  74.0362 235.6937 0018610 321.6138  38.3692 14.41611034873096"
      },
      "geometry": {
        "type": "Point",
        "coordinates": [
          -66.37270049285053,
          72.45872010384585
        ]
      }
    },
    {
      "type": "Feature",
      "properties": {
        "norad_id": 35061,
        "name": "COSMOS 2251 DEB",
        "group": "cosmos-2251-debris",
        "lat": 40.10710889246017,
        "lon": -56.603023768798636,
        "alt_km": 636.6631998917364,
        "timestamp": "2025-12-21T03:56:51.228540+00:00",
        "meta_object_name": "COSMOS 2251 DEB",
        "meta_object_id": "1993-036AHQ",
        "meta_epoch": "2025-12-19T05:57:32.306976",
        "meta_mean_motion": 14.67879438,
        "meta_eccentricity": 0.0039387,
        "meta_inclination": 74.0462,
        "meta_ra_of_asc_node": 293.1533,
        "meta_arg_of_pericenter": 42.1528,
        "meta_mean_anomaly": 318.2658,
        "meta_ephemeris_type": 0,
        "meta_classification_type": "U",
        "meta_norad_cat_id": 35061,
        "meta_element_set_no": 999,
        "meta_rev_at_epoch": 88670,
        "meta_bstar": 0.00054945,
        "meta_mean_motion_dot": 3.147e-05,
        "meta_mean_motion_ddot": 0,
        "tle_line1": "1 35061U 93036AHQ 25353.24829059  .00003147  00000+0  54945-3 0  9997",
        "tle_line2": "2 35061  74.0462 293.1533 0039387  42.1528 318.2658 14.67879438886707"
      },
      "geometry": {
        "type": "Point",
        "coordinates": [
          -56.603023768798636,
          40.10710889246017
        ]
      }
    },
    {
      "type": "Feature",
      "properties": {
        "norad_id": 35062,
        "name": "COSMOS 2251 DEB",
        "group": "cosmos-2251-debris",
        "lat": 0.3002071556307355,
        "lon": -101.94534663663012,
        "alt_km": 839.0465053921016,
        "timestamp": "2025-12-21T03:56:51.228556+00:00",
        "meta_object_name": "COSMOS 2251 DEB",
        "meta_object_id": "1993-036AHR",
        "meta_epoch": "2025-12-20T15:18:31.860864",
        "meta_mean_motion": 14.2299163,
        "meta_eccentricity": 0.0126507,
        "meta_inclination": 74.0795,
        "meta_ra_of_asc_node": 79.0842,
        "meta_arg_of_pericenter": 76.4467,
        "meta_mean_anomaly": 285.0735,
        "meta_ephemeris_type": 0,
        "meta_classification_type": "U",
        "meta_norad_cat_id": 35062,
        "meta_element_set_no": 999,
        "meta_rev_at_epoch": 85611,
        "meta_bstar": 0.0011139,
        "meta_mean_motion_dot": 2.7e-05,
        "meta_mean_motion_ddot": 0,
        "tle_line1": "1 35062U 93036AHR 25354.63786876  .00002700  00000+0  11139-2 0  9992",
        "tle_line2": "2 35062  74.0795  79.0842 0126507  76.4467 285.0735 14.22991630856113"
      },
      "geometry": {
        "type": "Point",
        "coordinates": [
          -101.94534663663012,
          0.3002071556307355
        ]
      }
    },
    {
      "type": "Feature",
      "properties": {
        "norad_id": 35065,
        "name": "COSMOS 2251 DEB",
        "group": "cosmos-2251-debris",
        "lat": -14.560240375032343,
        "lon": 2.878940745240419,
        "alt_km": 748.136595965535,
        "timestamp": "2025-12-21T03:56:51.228565+00:00",
        "meta_object_name": "COSMOS 2251 DEB",
        "meta_object_id": "1993-036AHU",
        "meta_epoch": "2025-12-19T06:12:25.656192",
        "meta_mean_motion": 14.4574331,
        "meta_eccentricity": 0.0020018,
        "meta_inclination": 74.0185,
        "meta_ra_of_asc_node": 182.1668,
        "meta_arg_of_pericenter": 306.5523,
        "meta_mean_anomaly": 53.3791,
        "meta_ephemeris_type": 0,
        "meta_classification_type": "U",
        "meta_norad_cat_id": 35065,
        "meta_element_set_no": 999,
        "meta_rev_at_epoch": 68445,
        "meta_bstar": 0.00028971,
        "meta_mean_motion_dot": 1.002e-05,
        "meta_mean_motion_ddot": 0,
        "tle_line1": "1 35065U 93036AHU 25353.25863028  .00001002  00000+0  28971-3 0  9994",
        "tle_line2": "2 35065  74.0185 182.1668 0020018 306.5523  53.3791 14.45743310684450"
      },
      "geometry": {
        "type": "Point",
        "coordinates": [
          2.878940745240419,
          -14.560240375032343
        ]
      }
    },
    {
      "type": "Feature",
      "properties": {
        "norad_id": 35071,
        "name": "COSMOS 2251 DEB",
        "group": "cosmos-2251-debris",
        "lat": 5.2641916567135745,
        "lon": 157.63557151178023,
        "alt_km": 524.060986885077,
        "timestamp": "2025-12-21T03:56:51.228575+00:00",
        "meta_object_name": "COSMOS 2251 DEB",
        "meta_object_id": "1993-036AJA",
        "meta_epoch": "2025-12-15T18:34:31.974816",
        "meta_mean_motion": 15.0351885,
        "meta_eccentricity": 0.00682233,
        "meta_inclination": 73.9308,
        "meta_ra_of_asc_node": 167.1964,
        "meta_arg_of_pericenter": 62.71,
        "meta_mean_anomaly": 298.1014,
        "meta_ephemeris_type": 0,
        "meta_classification_type": "U",
        "meta_norad_cat_id": 35071,
        "meta_element_set_no": 999,
        "meta_rev_at_epoch": 67582,
        "meta_bstar": 0.00048026378,
        "meta_mean_motion_dot": 6.858e-05,
        "meta_mean_motion_ddot": 0,
        "tle_line1": "1 35071U 93036AJA 25349.77398119  .00006858  00000+0  48026-3 0  9994",
        "tle_line2": "2 35071  73.9308 167.1964 0068223  62.7100 298.1014 15.03518850675828"
      },
      "geometry": {
        "type": "Point",
        "coordinates": [
          157.63557151178023,
          5.2641916567135745
        ]
      }
    }
  ]
}